[{"OBJECT_NAME":"STARLINK-3597","OBJECT_ID":"2022-022AY","EPOCH":"2026-03-09T04:41:57.200352","MEAN_MOTION":15.08844101,"ECCENTRICITY":0.00014957,"INCLINATION":53.2196,"RA_OF_ASC_NODE":1.3366,"ARG_OF_PERICENTER":92.6992,"MEAN_ANOMALY":267.4172,"EPHEMERIS_TYPE":0,"CLASSIFICATION_TYPE":"U","NORAD_CAT_ID":51898,"ELEMENT_SET_NO":999,"REV_AT_EPOCH":22322,"BSTAR":-7.190575e-6,"MEAN_MOTION_DOT":-4.02e-6,"MEAN_MOTION_DDOT":0},{"OBJECT_NAME":"PEGASUS DEB","OBJECT_ID":"1994-029KL","EPOCH":"2026-03-09T21:20:10.241088","MEAN_MOTION":13.96859935,"ECCENTRICITY":0.05133126,"INCLINATION":81.4593,"RA_OF_ASC_NODE":238.2872,"ARG_OF_PERICENTER":338.9836,"MEAN_ANOMALY":19.0885,"EPHEMERIS_TYPE":0,"CLASSIFICATION_TYPE":"U","NORAD_CAT_ID":24213,"ELEMENT_SET_NO":999,"REV_AT_EPOCH":14823,"BSTAR":0.00070532339,"MEAN_MOTION_DOT":3.072e-5,"MEAN_MOTION_DDOT":0}]
